NORAD_CAT_ID,OBJECT_NAME,OBJECT_TYPE,EPOCH,MEAN_MOTION,ECCENTRICITY,INCLINATION,RA_OF_ASC_NODE,ARG_OF_PERICENTER,MEAN_ANOMALY,BSTAR,MEAN_MOTION_DOT,MEAN_MOTION_DDOT,TLE_LINE0,TLE_LINE1,TLE_LINE2,SEMIMAJOR_AXIS,PERIOD,APOGEE,PERIGEE,DECAYED
54201.0,STARLINK-5199,PAYLOAD,2023-05-16 10:58:57,15.08837938,0.0001099,53.2157,289.7606,86.3105,273.8013,-1.9185e-05,-5.93e-06,0.0,0 STARLINK-5199,1 54201U 22141AW  23136.45760521 -.00000593  00000-0 -19185-4 0  9994,2 54201  53.2157 289.7606 0001099  86.3105 273.8013 15.08837938 31007,6917.887,95.438,540.512,538.991,0.0
54201.0,STARLINK-5199,PAYLOAD,2023-05-16 17:20:29,15.08838135,0.0001177,53.2165,288.5731,99.7812,260.3313,-1.1659e-05,-4.73e-06,0.0,0 STARLINK-5199,1 54201U 22141AW  23136.72256478 -.00000473  00000-0 -11659-4 0  9990,2 54201  53.2165 288.5731 0001177  99.7812 260.3313 15.08838135 30814,6917.886,95.438,540.565,538.937,0.0
54201.0,STARLINK-5199,PAYLOAD,2023-05-17 17:11:17,15.08837447,0.0001114,53.2173,284.1122,98.0174,262.0945,4.6489e-05,4.52e-06,0.0,0 STARLINK-5199,1 54201U 22141AW  23137.71616985  .00000452  00000-0  46489-4 0  9997,2 54201  53.2173 284.1122 0001114  98.0174 262.0945 15.08837447 31190,6917.888,95.438,540.524,538.983,0.0
54201.0,STARLINK-5199,PAYLOAD,2023-05-18 02:43:35,15.08838373,0.0001088,53.2174,282.3277,93.042,267.0697,8.1986e-05,1.017e-05,0.0,0 STARLINK-5199,1 54201U 22141AW  23138.11360901  .00001017  00000-0  81986-4 0  9995,2 54201  53.2174 282.3277 0001088  93.0420 267.0697 15.08838373 31021,6917.885,95.438,540.503,538.998,0.0
54201.0,STARLINK-5199,PAYLOAD,2023-05-19 02:34:22,15.08838252,7.5e-06,53.2146,277.8644,111.9023,248.1977,9.3576e-05,1.202e-05,0.0,0 STARLINK-5199,1 54201U 22141AW  23139.10720422  .00001202  00000-0  93576-4 0  9997,2 54201  53.2146 277.8644 0000075 111.9023 248.1977 15.08838252 31400,6917.886,95.438,539.803,539.699,0.0
54201.0,STARLINK-5199,PAYLOAD,2023-05-19 08:55:55,15.08834284,0.0001064,53.2136,276.6737,82.3832,277.7281,0.00013627,1.881e-05,0.0,0 STARLINK-5199,1 54201U 22141AW  23139.37217082  .00001881  00000-0  13627-3 0  9990,2 54201  53.2136 276.6737 0001064  82.3832 277.7281 15.08834284 31213,6917.898,95.438,540.499,539.027,0.0
54201.0,STARLINK-5199,PAYLOAD,2023-05-20 08:46:41,15.08848413,7.98e-05,53.2177,272.2178,71.6362,288.4717,6.9199e-05,8.14e-06,0.0,0 STARLINK-5199,1 54201U 22141AW  23140.36576256  .00000814  00000-0  69199-4 0  9993,2 54201  53.2177 272.2178 0000798  71.6362 288.4717 15.08848413 31594,6917.855,95.437,540.272,539.168,0.0
54201.0,STARLINK-5199,PAYLOAD,2023-05-20 15:08:14,15.08837423,0.0001401,53.2151,271.0275,71.3611,288.7533,0.00038959,5.917e-05,0.0,0 STARLINK-5199,1 54201U 22141AW  23140.63071811  .00005917  00000-0  38959-3 0  9998,2 54201  53.2151 271.0275 0001401  71.3611 288.7533 15.08837423 31405,6917.888,95.438,540.722,538.784,0.0
54201.0,STARLINK-5199,PAYLOAD,2023-05-21 11:48:16,15.08825076,0.0001164,53.2158,267.162,74.9504,285.1617,-0.00017707,-3.104e-05,0.0,0 STARLINK-5199,1 54201U 22141AW  23141.49185466 -.00003104  00000-0 -17707-3 0  9991,2 54201  53.2158 267.1620 0001164  74.9504 285.1617 15.08825076 31537,6917.926,95.438,540.596,538.986,0.0
54201.0,STARLINK-5199,PAYLOAD,2023-05-21 14:59:02,15.088298,0.0001327,53.216,266.5675,78.8929,281.2212,-8.0064e-05,-1.562e-05,0.0,0 STARLINK-5199,1 54201U 22141AW  23141.62433379 -.00001562  00000-0 -80064-4 0  9998,2 54201  53.2160 266.5675 0001327  78.8929 281.2212 15.08829800 31782,6917.912,95.438,540.695,538.859,0.0
54201.0,STARLINK-5199,PAYLOAD,2023-05-22 14:49:48,15.08847793,0.000126,53.2167,262.1034,110.7845,249.3283,0.00024886,3.676e-05,0.0,0 STARLINK-5199,1 54201U 22141AW  23142.61792674  .00003676  00000-0  24886-3 0  9999,2 54201  53.2167 262.1034 0001260 110.7845 249.3283 15.08847793 31930,6917.857,95.437,540.593,538.85,0.0
54201.0,STARLINK-5199,PAYLOAD,2023-05-23 11:29:50,15.08839886,0.0001304,53.2166,258.237,116.9371,243.1755,0.00024135,3.555e-05,0.0,0 STARLINK-5199,1 54201U 22141AW  23143.47905366  .00003555  00000-0  24135-3 0  9991,2 54201  53.2166 258.2370 0001304 116.9371 243.1755 15.08839886 32064,6917.881,95.438,540.648,538.844,0.0
54201.0,STARLINK-5199,PAYLOAD,2023-05-23 14:40:36,15.08841934,0.0001203,53.2164,257.6432,112.6161,247.4959,0.0002559,3.787e-05,0.0,0 STARLINK-5199,1 54201U 22141AW  23143.61153297  .00003787  00000-0  25590-3 0  9998,2 54201  53.2164 257.6432 0001203 112.6161 247.4959 15.08841934 31858,6917.874,95.437,540.572,538.907,0.0
54201.0,STARLINK-5199,PAYLOAD,2023-05-24 12:56:00,15.08846241,0.000122,53.2163,253.4825,111.8222,248.29,0.00011113,1.482e-05,0.0,0 STARLINK-5199,1 54201U 22141AW  23144.53889133  .00001482  00000-0  11113-3 0  9991,2 54201  53.2163 253.4825 0001220 111.8222 248.2900 15.08846241 32228,6917.861,95.437,540.57,538.882,0.0
54201.0,STARLINK-5199,PAYLOAD,2023-05-25 14:22:10,15.08841625,0.0001316,53.2166,248.7283,102.4694,257.6445,1.4115e-05,-6.3e-07,0.0,0 STARLINK-5199,1 54201U 22141AW  23145.59873432 -.00000063  00000-0  14115-4 0  9994,2 54201  53.2166 248.7283 0001316 102.4694 257.6445 15.08841625 32152,6917.875,95.437,540.651,538.83,0.0
54201.0,STARLINK-5199,PAYLOAD,2023-05-25 15:57:33,15.08841405,0.0001112,53.2159,248.427,89.9443,270.1677,0.00010652,1.408e-05,0.0,0 STARLINK-5199,1 54201U 22141AW  23145.66497435  .00001408  00000-0  10652-3 0  9991,2 54201  53.2159 248.4270 0001112  89.9443 270.1677 15.08841405 32391,6917.876,95.437,540.51,538.972,0.0
54201.0,STARLINK-5199,PAYLOAD,2023-05-26 12:37:33,15.08859173,0.0001097,53.2139,244.5596,138.8796,221.2279,0.00034969,5.285e-05,0.0,0 STARLINK-5199,1 54201U 22141AW  23146.52608261  .00005285  00000-0  34969-3 0  9992,2 54201  53.2139 244.5596 0001097 138.8796 221.2279 15.08859173 32299,6917.822,95.436,540.446,538.928,0.0
54201.0,STARLINK-5199,PAYLOAD,2023-05-26 14:12:56,15.0886299,0.0001007,53.2156,244.263,78.5621,281.5484,0.0004372,6.681e-05,0.0,0 STARLINK-5199,1 54201U 22141AW  23146.59232290  .00006681  00000-0  43720-3 0  9990,2 54201  53.2156 244.2630 0001007  78.5621 281.5484 15.08862990 32537,6917.81,95.436,540.372,538.978,0.0
54201.0,STARLINK-5199,PAYLOAD,2023-05-26 23:45:16,15.0884713,0.0001452,53.2165,242.4825,66.4147,293.6997,0.00011224,1.499e-05,0.0,0 STARLINK-5199,1 54201U 22141AW  23146.98976925  .00001499  00000-0  11224-3 0  9999,2 54201  53.2165 242.4825 0001452  66.4147 293.6997 15.08847130 32594,6917.859,95.437,540.728,538.719,0.0
54201.0,STARLINK-5199,PAYLOAD,2023-05-27 10:52:58,15.08830519,9.78e-05,53.2149,240.3986,69.1449,290.9647,-4.5093e-05,-1.005e-05,0.0,0 STARLINK-5199,1 54201U 22141AW  23147.45345679 -.00001005  00000-0 -45093-4 0  9995,2 54201  53.2149 240.3986 0000978  69.1449 290.9647 15.08830519 32661,6917.909,95.438,540.451,539.098,0.0
54201.0,STARLINK-5199,PAYLOAD,2023-05-27 12:28:21,15.08832684,9.42e-05,53.2147,240.1023,64.3594,295.7496,-7.3299e-05,-1.454e-05,0.0,0 STARLINK-5199,1 54201U 22141AW  23147.51969599 -.00001454  00000-0 -73299-4 0  9992,2 54201  53.2147 240.1023 0000942  64.3594 295.7496 15.08832684 32444,6917.903,95.438,540.419,539.116,0.0
54201.0,STARLINK-5199,PAYLOAD,2023-05-27 23:36:03,15.08839013,9.99e-05,53.2149,238.0201,66.8445,293.2652,4.4619e-05,4.22e-06,0.0,0 STARLINK-5199,1 54201U 22141AW  23147.98337422  .00000422  00000-0  44619-4 0  9993,2 54201  53.2149 238.0201 0000999  66.8445 293.2652 15.08839013 32747,6917.883,95.438,540.44,539.057,0.0
54201.0,STARLINK-5199,PAYLOAD,2023-05-28 05:57:35,15.08843794,8.52e-05,53.2155,236.8301,63.5759,296.5321,0.00011789,1.589e-05,0.0,0 STARLINK-5199,1 54201U 22141AW  23148.24833191  .00001589  00000-0  11789-3 0  9993,2 54201  53.2155 236.8301 0000852  63.5759 296.5321 15.08843794 32550,6917.869,95.437,540.323,539.144,0.0
54201.0,STARLINK-5199,PAYLOAD,2023-05-28 12:19:08,15.08851592,9.64e-05,53.215,235.6391,72.3016,287.8081,0.00025152,3.719e-05,0.0,0 STARLINK-5199,1 54201U 22141AW  23148.51328920  .00003719  00000-0  25152-3 0  9998,2 54201  53.2150 235.6391 0000964  72.3016 287.8081 15.08851592 32820,6917.845,95.437,540.377,539.043,0.0
54201.0,STARLINK-5199,PAYLOAD,2023-05-29 10:34:32,15.0884845,0.0001082,53.2149,231.4769,60.3758,299.7341,0.00030761,4.612e-05,0.0,0 STARLINK-5199,1 54201U 22141AW  23149.44065084  .00004612  00000-0  30761-3 0  9995,2 54201  53.2149 231.4769 0001082  60.3758 299.7341 15.08848450 32968,6917.855,95.437,540.468,538.971,0.0
54201.0,STARLINK-5199,PAYLOAD,2023-05-29 12:09:55,15.08849425,0.0001091,53.215,231.1794,59.306,300.8039,0.00030026,4.495e-05,0.0,0 STARLINK-5199,1 54201U 22141AW  23149.50689008  .00004495  00000-0  30026-3 0  9993,2 54201  53.2150 231.1794 0001091  59.3060 300.8039 15.08849425 32746,6917.852,95.437,540.471,538.962,0.0
54201.0,STARLINK-5199,PAYLOAD,2023-05-30 08:49:56,15.0883844,0.0001057,53.215,227.3133,102.0417,258.0694,-2.401e-05,-6.7e-06,0.0,0 STARLINK-5199,1 54201U 22141AW  23150.36801228 -.00000670  00000-0 -24010-4 0  9999,2 54201  53.2150 227.3133 0001057 102.0417 258.0694 15.08838440 33101,6917.885,95.438,540.481,539.019,0.0
54201.0,STARLINK-5199,PAYLOAD,2023-05-30 12:00:42,15.08836025,0.000108,53.2149,226.7185,68.0157,292.095,-9.4453e-05,-1.791e-05,0.0,0 STARLINK-5199,1 54201U 22141AW  23150.50049535 -.00001791  00000-0 -94453-4 0  9993,2 54201  53.2149 226.7185 0001080  68.0157 292.0950 15.08836025 32892,6917.893,95.438,540.505,539.01,0.0
54201.0,STARLINK-5199,PAYLOAD,2023-05-30 21:33:01,15.08836414,0.0001044,53.2162,224.9348,83.4919,276.6192,-4.7013e-06,-3.63e-06,0.0,0 STARLINK-5199,1 54201U 22141AW  23150.89793779 -.00000363  00000-0 -47013-5 0  9996,2 54201  53.2162 224.9348 0001044  83.4919 276.6192 15.08836414 32950,6917.891,95.438,540.479,539.034,0.0
54201.0,STARLINK-5199,PAYLOAD,2023-05-31 10:16:06,15.08843597,0.0001035,53.2155,222.5557,78.9752,281.1357,5.8757e-05,6.48e-06,0.0,0 STARLINK-5199,1 54201U 22141AW  23151.42785220  .00000648  00000-0  58757-4 0  9998,2 54201  53.2155 222.5557 0001035  78.9752 281.1357 15.08843597 33261,6917.869,95.437,540.45,539.018,0.0
